NORAD_CAT_ID,OBJECT_NAME,OBJECT_TYPE,EPOCH,MEAN_MOTION,ECCENTRICITY,INCLINATION,RA_OF_ASC_NODE,ARG_OF_PERICENTER,MEAN_ANOMALY,BSTAR,MEAN_MOTION_DOT,MEAN_MOTION_DDOT,TLE_LINE0,TLE_LINE1,TLE_LINE2,SEMIMAJOR_AXIS,PERIOD,APOGEE,PERIGEE,DECAYED
50172.0,STARLINK-3287,PAYLOAD,2024-08-03 15:36:22,15.08845923,0.0001572,53.2174,346.4888,88.2135,271.9038,0.00027302,4.06e-05,0.0,0 STARLINK-3287,1 50172U 21125S   24216.65025510  .00004060  00000-0  27302-3 0  9992,2 50172  53.2174 346.4888 0001572  88.2135 271.9038 15.08845923148617,6917.862,95.437,540.815,538.64,0.0
50172.0,STARLINK-3287,PAYLOAD,2024-08-03 18:47:08,15.08850619,0.000157,53.2172,345.8936,86.933,273.1842,0.00042215,6.439e-05,0.0,0 STARLINK-3287,1 50172U 21125S   24216.78273387  .00006439  00000-0  42215-3 0  9995,2 50172  53.2172 345.8936 0001570  86.9330 273.1842 15.08850619148639,6917.848,95.437,540.799,538.627,0.0
50172.0,STARLINK-3287,PAYLOAD,2024-08-04 12:16:23,15.08835076,0.0001588,53.2175,342.6272,91.7487,268.3687,0.00010883,1.444e-05,0.0,0 STARLINK-3287,1 50172U 21125S   24217.51138124  .00001444  00000-0  10883-3 0  9993,2 50172  53.2175 342.6272 0001588  91.7487 268.3687 15.08835076148224,6917.895,95.438,540.859,538.662,0.0
50172.0,STARLINK-3287,PAYLOAD,2024-08-04 15:27:09,15.08840234,0.0001216,53.2164,342.0302,88.1199,271.9933,0.00018911,2.723e-05,0.0,0 STARLINK-3287,1 50172U 21125S   24217.64385940  .00002723  00000-0  18911-3 0  9998,2 50172  53.2164 342.0302 0001216  88.1199 271.9933 15.08840234148763,6917.88,95.438,540.586,538.903,0.0
50172.0,STARLINK-3287,PAYLOAD,2024-08-05 00:59:27,15.08859405,0.0001477,53.2173,340.2449,88.2566,271.8596,0.00055021,8.484e-05,0.0,0 STARLINK-3287,1 50172U 21125S   24218.04129254  .00008484  00000-0  55021-3 0  9990,2 50172  53.2173 340.2449 0001477  88.2566 271.8596 15.08859405148307,6917.821,95.436,540.708,538.664,0.0
50172.0,STARLINK-3287,PAYLOAD,2024-08-05 12:07:09,15.08855868,0.0001804,53.219,338.1701,111.4525,248.666,0.00031655,4.756e-05,0.0,0 STARLINK-3287,1 50172U 21125S   24218.50497064  .00004756  00000-0  31655-3 0  9993,2 50172  53.2190 338.1701 0001804 111.4525 248.6660 15.08855868148371,6917.832,95.437,540.945,538.449,0.0
50172.0,STARLINK-3287,PAYLOAD,2024-08-05 15:17:55,15.08857767,0.0001772,53.2187,337.575,110.2444,249.8738,0.00027857,4.15e-05,0.0,0 STARLINK-3287,1 50172U 21125S   24218.63744803  .00004150  00000-0  27857-3 0  9990,2 50172  53.2187 337.5750 0001772 110.2444 249.8738 15.08857767148914,6917.826,95.436,540.917,538.465,0.0
50172.0,STARLINK-3287,PAYLOAD,2024-08-06 11:57:58,15.08810092,0.0001389,53.2176,333.7053,84.2459,275.8692,-0.00035897,-5.992e-05,0.0,0 STARLINK-3287,1 50172U 21125S   24219.49859710 -.00005992  00000-0 -35897-3 0  9999,2 50172  53.2176 333.7053 0001389  84.2459 275.8692 15.08810092148521,6917.972,95.439,540.798,538.876,0.0
50172.0,STARLINK-3287,PAYLOAD,2024-08-06 13:33:21,15.08810918,0.0001642,53.2187,333.4106,109.0998,251.0172,-0.00042982,-7.117e-05,0.0,0 STARLINK-3287,1 50172U 21125S   24219.56483708 -.00007117  00000-0 -42982-3 0  9991,2 50172  53.2187 333.4106 0001642 109.0998 251.0172 15.08810918149050,6917.969,95.439,540.97,538.698,0.0
50172.0,STARLINK-3287,PAYLOAD,2024-08-06 16:44:08,15.08806234,0.0001524,53.218,332.8142,89.8823,270.2344,-0.00045043,-7.443e-05,0.0,0 STARLINK-3287,1 50172U 21125S   24219.69732214 -.00007443  00000-0 -45043-3 0  9997,2 50172  53.2180 332.8142 0001524  89.8823 270.2344 15.08806234149079,6917.984,95.44,540.903,538.794,0.0
50172.0,STARLINK-3287,PAYLOAD,2024-08-07 11:48:45,15.08840564,0.0001767,53.2173,329.243,35.3628,324.7481,0.00023629,3.475e-05,0.0,0 STARLINK-3287,1 50172U 21125S   24220.49219434  .00003475  00000-0  23629-3 0  9996,2 50172  53.2173 329.2430 0001767  35.3628 324.7481 15.08840564148675,6917.879,95.438,540.966,538.521,0.0
50172.0,STARLINK-3287,PAYLOAD,2024-08-08 13:14:54,15.08866514,0.0001752,53.2173,324.4857,82.8402,277.279,0.00066783,0.00010364,0.0,0 STARLINK-3287,1 50172U 21125S   24221.55202291  .00010364  00000-0  66783-3 0  9990,2 50172  53.2173 324.4857 0001752  82.8402 277.2790 15.08866514149350,6917.799,95.436,540.876,538.452,0.0
50172.0,STARLINK-3287,PAYLOAD,2024-08-09 00:22:36,15.08865164,0.0001821,53.2172,322.4102,77.9902,282.1295,0.00038117,5.788e-05,0.0,0 STARLINK-3287,1 50172U 21125S   24222.01569845  .00005788  00000-0  38117-3 0  9997,2 50172  53.2172 322.4102 0001821  77.9902 282.1295 15.08865164148902,6917.803,95.436,540.928,538.409,0.0
50172.0,STARLINK-3287,PAYLOAD,2024-08-09 13:05:40,15.08859567,0.0001885,53.2156,320.0251,94.4108,265.71,-8.2325e-05,-1.599e-05,0.0,0 STARLINK-3287,1 50172U 21125S   24222.54561041 -.00001599  00000-0 -82325-4 0  9994,2 50172  53.2156 320.0251 0001885  94.4108 265.7100 15.08859567149504,6917.821,95.436,540.99,538.382,0.0
50172.0,STARLINK-3287,PAYLOAD,2024-08-10 12:56:28,15.08838862,0.0001838,53.2182,315.5653,88.9881,271.1322,-6.0154e-05,-1.245e-05,0.0,0 STARLINK-3287,1 50172U 21125S   24223.53922209 -.00001245  00000-0 -60154-4 0  9995,2 50172  53.2182 315.5653 0001838  88.9881 271.1322 15.08838862149133,6917.884,95.438,541.02,538.477,0.0
50172.0,STARLINK-3287,PAYLOAD,2024-08-10 17:42:38,15.08849807,0.0001779,53.2157,314.6689,105.9335,254.1853,0.0002444,3.605e-05,0.0,0 STARLINK-3287,1 50172U 21125S   24223.73794011  .00003605  00000-0  24440-3 0  9992,2 50172  53.2157 314.6689 0001779 105.9335 254.1853 15.08849807149683,6917.85,95.437,540.946,538.485,0.0
50172.0,STARLINK-3287,PAYLOAD,2024-08-11 12:47:16,15.08846299,0.0001383,53.2174,311.1066,76.9367,283.1779,0.0005635,8.693e-05,0.0,0 STARLINK-3287,1 50172U 21125S   24224.53283086  .00008693  00000-0  56350-3 0  9993,2 50172  53.2174 311.1066 0001383  76.9367 283.1779 15.08846299149283,6917.861,95.437,540.683,538.769,0.0
50172.0,STARLINK-3287,PAYLOAD,2024-08-11 22:19:35,15.08854372,0.0001188,53.2171,309.3219,70.3528,289.7592,0.00082178,0.0001282,0.0,0 STARLINK-3287,1 50172U 21125S   24224.93026702  .00012820  00000-0  82178-3 0  9991,2 50172  53.2171 309.3219 0001188  70.3528 289.7592 15.08854372149869,6917.836,95.437,540.523,538.88,0.0
50172.0,STARLINK-3287,PAYLOAD,2024-08-12 12:38:01,15.08890942,8.72e-05,53.2168,306.6461,62.1266,297.9814,0.0011878,0.00018693,0.0,0 STARLINK-3287,1 50172U 21125S   24225.52640802  .00018693  00000-0  11878-2 0  9992,2 50172  53.2168 306.6461 0000872  62.1266 297.9814 15.08890942149435,6917.725,95.434,540.193,538.986,0.0
50172.0,STARLINK-3287,PAYLOAD,2024-08-12 22:10:19,15.08901762,9.81e-05,53.2157,304.8563,43.8637,316.2433,0.0012002,0.00018897,0.0,0 STARLINK-3287,1 50172U 21125S   24225.92383230  .00018897  00000-0  12002-2 0  9991,2 50172  53.2157 304.8563 0000981  43.8637 316.2433 15.08901762150016,6917.692,95.434,540.235,538.878,0.0
50172.0,STARLINK-3287,PAYLOAD,2024-08-13 12:28:48,15.08835622,0.0001304,53.2141,302.1823,75.7222,284.3915,-0.00063421,-0.00010366,0.0,0 STARLINK-3287,1 50172U 21125S   24226.52000893 -.00010366  00000-0 -63421-3 0  9996,2 50172  53.2141 302.1823 0001304  75.7222 284.3915 15.08835622149584,6917.894,95.438,540.661,538.857,0.0
50172.0,STARLINK-3287,PAYLOAD,2024-08-13 22:01:08,15.08823702,0.0001168,53.2112,300.3993,76.4364,283.6758,-0.00047318,-7.807e-05,0.0,0 STARLINK-3287,1 50172U 21125S   24226.91745600 -.00007807  00000-0 -47318-3 0  9994,2 50172  53.2112 300.3993 0001168  76.4364 283.6758 15.08823702150162,6917.93,95.439,540.603,538.987,0.0
50172.0,STARLINK-3287,PAYLOAD,2024-08-14 04:22:41,15.08817111,0.0001343,53.2125,299.2105,81.7413,278.3732,-0.00027396,-4.643e-05,0.0,0 STARLINK-3287,1 50172U 21125S   24227.18242284 -.00004643  00000-0 -27396-3 0  9993,2 50172  53.2125 299.2105 0001343  81.7413 278.3732 15.08817111149681,6917.95,95.439,540.744,538.886,0.0
50172.0,STARLINK-3287,PAYLOAD,2024-08-14 12:19:37,15.08817518,0.0001619,53.2167,297.7231,82.9297,277.188,-0.0001731,-3.04e-05,0.0,0 STARLINK-3287,1 50172U 21125S   24227.51362943 -.00003040  00000-0 -17310-3 0  9990,2 50172  53.2167 297.7231 0001619  82.9297 277.1880 15.08817518150256,6917.949,95.439,540.934,538.694,0.0
50172.0,STARLINK-3287,PAYLOAD,2024-08-14 21:51:56,15.08824985,0.0001344,53.2157,295.9404,78.9892,281.1252,0.00025565,3.781e-05,0.0,0 STARLINK-3287,1 50172U 21125S   24227.91107401  .00003781  00000-0  25565-3 0  9991,2 50172  53.2157 295.9404 0001344  78.9892 281.1252 15.08824985150319,6917.926,95.439,540.721,538.862,0.0
50172.0,STARLINK-3287,PAYLOAD,2024-08-15 10:35:02,15.08837002,0.0001343,53.2152,293.5615,79.3461,280.7683,0.00053685,8.266e-05,0.0,0 STARLINK-3287,1 50172U 21125S   24228.44099609  .00008266  00000-0  53685-3 0  9997,2 50172  53.2152 293.5615 0001343  79.3461 280.7683 15.08837002150393,6917.89,95.438,540.684,538.825,0.0
50172.0,STARLINK-3287,PAYLOAD,2024-08-15 21:42:43,15.0884419,0.0001382,53.2153,291.4796,79.309,280.8058,0.00050343,7.734e-05,0.0,0 STARLINK-3287,1 50172U 21125S   24228.90467513  .00007734  00000-0  50343-3 0  9998,2 50172  53.2153 291.4796 0001382  79.3090 280.8058 15.08844190150463,6917.868,95.437,540.689,538.777,0.0
50172.0,STARLINK-3287,PAYLOAD,2024-08-16 10:25:48,15.08847299,0.0001452,53.2149,289.1015,78.0253,282.0902,0.00033138,4.991e-05,0.0,0 STARLINK-3287,1 50172U 21125S   24229.43459432  .00004991  00000-0  33138-3 0  9993,2 50172  53.2149 289.1015 0001452  78.0253 282.0902 15.08847299150545,6917.858,95.437,540.728,538.719,0.0
50172.0,STARLINK-3287,PAYLOAD,2024-08-17 07:05:49,15.08843264,0.0001501,53.2141,285.2358,76.813,283.303,0.00015861,2.237e-05,0.0,0 STARLINK-3287,1 50172U 21125S   24230.29571412  .00002237  00000-0  15861-3 0  9996,2 50172  53.2141 285.2358 0001501  76.8130 283.3030 15.08843264150150,6917.87,95.437,540.774,538.697,0.0
50172.0,STARLINK-3287,PAYLOAD,2024-08-18 10:07:22,15.08840761,0.0001513,53.2163,280.1755,97.0971,263.0193,5.9702e-05,6.62e-06,0.0,0 STARLINK-3287,1 50172U 21125S   24231.42179380  .00000662  00000-0  59702-4 0  9993,2 50172  53.2163 280.1755 0001513  97.0971 263.0193 15.08840761150323,6917.878,95.438,540.79,538.696,0.0
